[{"OBJECT_NAME":"COSMOS 2251 DEB","OBJECT_ID":"1993-036AGU","EPOCH":"2026-02-28T19:38:15.802944","MEAN_MOTION":14.38393141,"ECCENTRICITY":0.00192661,"INCLINATION":74.0369,"RA_OF_ASC_NODE":115.4074,"ARG_OF_PERICENTER":198.1978,"MEAN_ANOMALY":161.8489,"EPHEMERIS_TYPE":0,"CLASSIFICATION_TYPE":"U","NORAD_CAT_ID":35031,"ELEMENT_SET_NO":999,"REV_AT_EPOCH":66406,"BSTAR":0.0001476424,"MEAN_MOTION_DOT":4.25e-6,"MEAN_MOTION_DDOT":0},{"OBJECT_NAME":"COSMOS 2251 DEB","OBJECT_ID":"1993-036AGV","EPOCH":"2026-03-04T20:03:00.171360","MEAN_MOTION":14.59473038,"ECCENTRICITY":0.00661694,"INCLINATION":73.8502,"RA_OF_ASC_NODE":209.0623,"ARG_OF_PERICENTER":40.8819,"MEAN_ANOMALY":108.9838,"EPHEMERIS_TYPE":0,"CLASSIFICATION_TYPE":"U","NORAD_CAT_ID":35032,"ELEMENT_SET_NO":999,"REV_AT_EPOCH":88871,"BSTAR":0.0012171558,"MEAN_MOTION_DOT":5.926e-5,"MEAN_MOTION_DDOT":0},{"OBJECT_NAME":"COSMOS 2251 DEB","OBJECT_ID":"1993-036AHB","EPOCH":"2026-03-03T23:07:42.163680","MEAN_MOTION":14.25870634,"ECCENTRICITY":0.0112501,"INCLINATION":74.1051,"RA_OF_ASC_NODE":256.5836,"ARG_OF_PERICENTER":220.5061,"MEAN_ANOMALY":291.2997,"EPHEMERIS_TYPE":0,"CLASSIFICATION_TYPE":"U","NORAD_CAT_ID":35038,"ELEMENT_SET_NO":999,"REV_AT_EPOCH":86726,"BSTAR":0.001778,"MEAN_MOTION_DOT":4.5e-5,"MEAN_MOTION_DDOT":0},{"OBJECT_NAME":"COSMOS 2251 DEB","OBJECT_ID":"1993-036AHG","EPOCH":"2026-03-05T21:12:35.269056","MEAN_MOTION":14.81719081,"ECCENTRICITY":0.00880959,"INCLINATION":73.9473,"RA_OF_ASC_NODE":241.0935,"ARG_OF_PERICENTER":67.958,"MEAN_ANOMALY":293.0925,"EPHEMERIS_TYPE":0,"CLASSIFICATION_TYPE":"U","NORAD_CAT_ID":35043,"ELEMENT_SET_NO":999,"REV_AT_EPOCH":68648,"BSTAR":0.0037927707,"MEAN_MOTION_DOT":0.00032087,"MEAN_MOTION_DDOT":0},{"OBJECT_NAME":"COSMOS 2251 DEB","OBJECT_ID":"1993-036AHJ","EPOCH":"2026-02-27T00:31:58.805760","MEAN_MOTION":14.00562845,"ECCENTRICITY":0.01816119,"INCLINATION":73.7162,"RA_OF_ASC_NODE":277.9565,"ARG_OF_PERICENTER":148.8646,"MEAN_ANOMALY":212.3402,"EPHEMERIS_TYPE":0,"CLASSIFICATION_TYPE":"U","NORAD_CAT_ID":35045,"ELEMENT_SET_NO":999,"REV_AT_EPOCH":85711,"BSTAR":0.00052863242,"MEAN_MOTION_DOT":8.81e-6,"MEAN_MOTION_DDOT":0},{"OBJECT_NAME":"COSMOS 2251 DEB","OBJECT_ID":"1993-036AHP","EPOCH":"2026-03-05T17:49:09.188544","MEAN_MOTION":14.41814041,"ECCENTRICITY":0.00174383,"INCLINATION":74.0356,"RA_OF_ASC_NODE":90.554,"ARG_OF_PERICENTER":165.8714,"MEAN_ANOMALY":194.2933,"EPHEMERIS_TYPE":0,"CLASSIFICATION_TYPE":"U","NORAD_CAT_ID":35060,"ELEMENT_SET_NO":999,"REV_AT_EPOCH":88438,"BSTAR":0.00037624342,"MEAN_MOTION_DOT":1.205e-5,"MEAN_MOTION_DDOT":0},{"OBJECT_NAME":"COSMOS 2251 DEB","OBJECT_ID":"1993-036AHQ","EPOCH":"2026-03-05T21:37:32.704608","MEAN_MOTION":14.6862573,"ECCENTRICITY":0.00417115,"INCLINATION":74.0455,"RA_OF_ASC_NODE":145.0294,"ARG_OF_PERICENTER":238.4179,"MEAN_ANOMALY":121.2916,"EPHEMERIS_TYPE":0,"CLASSIFICATION_TYPE":"U","NORAD_CAT_ID":35061,"ELEMENT_SET_NO":999,"REV_AT_EPOCH":89795,"BSTAR":0.00073856685,"MEAN_MOTION_DOT":4.32e-5,"MEAN_MOTION_DDOT":0},{"OBJECT_NAME":"COSMOS 2251 DEB","OBJECT_ID":"1993-036AHR","EPOCH":"2026-03-04T00:14:52.268352","MEAN_MOTION":14.23891079,"ECCENTRICITY":0.01263831,"INCLINATION":74.0809,"RA_OF_ASC_NODE":307.4228,"ARG_OF_PERICENTER":285.9486,"MEAN_ANOMALY":72.7766,"EPHEMERIS_TYPE":0,"CLASSIFICATION_TYPE":"U","NORAD_CAT_ID":35062,"ELEMENT_SET_NO":999,"REV_AT_EPOCH":86655,"BSTAR":0.0018042989,"MEAN_MOTION_DOT":4.466e-5,"MEAN_MOTION_DDOT":0},{"OBJECT_NAME":"COSMOS 2251 DEB","OBJECT_ID":"1993-036AHU","EPOCH":"2026-03-04T14:32:11.717088","MEAN_MOTION":14.46033825,"ECCENTRICITY":0.0018662,"INCLINATION":74.0205,"RA_OF_ASC_NODE":41.471,"ARG_OF_PERICENTER":154.7945,"MEAN_ANOMALY":205.4128,"EPHEMERIS_TYPE":0,"CLASSIFICATION_TYPE":"U","NORAD_CAT_ID":35065,"ELEMENT_SET_NO":999,"REV_AT_EPOCH":69534,"BSTAR":0.00058246,"MEAN_MOTION_DOT":2.054e-5,"MEAN_MOTION_DDOT":0},{"OBJECT_NAME":"COSMOS 2251 DEB","OBJECT_ID":"1993-036AJA","EPOCH":"2026-02-11T08:52:27.880032","MEAN_MOTION":15.05018922,"ECCENTRICITY":0.00700444,"INCLINATION":73.9325,"RA_OF_ASC_NODE":48.614,"ARG_OF_PERICENTER":290.1885,"MEAN_ANOMALY":69.178,"EPHEMERIS_TYPE":0,"CLASSIFICATION_TYPE":"U","NORAD_CAT_ID":35071,"ELEMENT_SET_NO":999,"REV_AT_EPOCH":68448,"BSTAR":0.0010407924,"MEAN_MOTION_DOT":0.00015602,"MEAN_MOTION_DDOT":0},{"OBJECT_NAME":"COSMOS 2251 DEB","OBJECT_ID":"1993-036AJC","EPOCH":"2026-02-17T02:05:32.262144","MEAN_MOTION":15.07343553,"ECCENTRICITY":0.00156257,"INCLINATION":73.9975,"RA_OF_ASC_NODE":194.6296,"ARG_OF_PERICENTER":301.2452,"MEAN_ANOMALY":58.7207,"EPHEMERIS_TYPE":0,"CLASSIFICATION_TYPE":"U","NORAD_CAT_ID":35073,"ELEMENT_SET_NO":999,"REV_AT_EPOCH":68476,"BSTAR":0.004407525,"MEAN_MOTION_DOT":0.00067409,"MEAN_MOTION_DDOT":0},{"OBJECT_NAME":"COSMOS 2251 DEB","OBJECT_ID":"1993-036AJN","EPOCH":"2026-03-03T20:42:02.255040","MEAN_MOTION":14.38419398,"ECCENTRICITY":0.0016437,"INCLINATION":74.0478,"RA_OF_ASC_NODE":115.0513,"ARG_OF_PERICENTER":181.2232,"MEAN_ANOMALY":292.991,"EPHEMERIS_TYPE":0,"CLASSIFICATION_TYPE":"U","NORAD_CAT_ID":35284,"ELEMENT_SET_NO":999,"REV_AT_EPOCH":66692,"BSTAR":0.00019062,"MEAN_MOTION_DOT":5.56e-6,"MEAN_MOTION_DDOT":0},{"OBJECT_NAME":"COSMOS 2251 DEB","OBJECT_ID":"1993-036AJR","EPOCH":"2026-03-03T14:21:49.013280","MEAN_MOTION":14.36453474,"ECCENTRICITY":0.001866,"INCLINATION":74.0296,"RA_OF_ASC_NODE":127.5502,"ARG_OF_PERICENTER":212.6748,"MEAN_ANOMALY":302.5155,"EPHEMERIS_TYPE":0,"CLASSIFICATION_TYPE":"U","NORAD_CAT_ID":35287,"ELEMENT_SET_NO":999,"REV_AT_EPOCH":88053,"BSTAR":0.00014851,"MEAN_MOTION_DOT":4.1e-6,"MEAN_MOTION_DDOT":0},{"OBJECT_NAME":"COSMOS 2251 DEB","OBJECT_ID":"1993-036AJS","EPOCH":"2026-03-05T17:31:04.132416","MEAN_MOTION":14.66624828,"ECCENTRICITY":0.00367071,"INCLINATION":73.9508,"RA_OF_ASC_NODE":214.4295,"ARG_OF_PERICENTER":64.1471,"MEAN_ANOMALY":296.3475,"EPHEMERIS_TYPE":0,"CLASSIFICATION_TYPE":"U","NORAD_CAT_ID":35288,"ELEMENT_SET_NO":999,"REV_AT_EPOCH":89094,"BSTAR":0.0017191419,"MEAN_MOTION_DOT":9.632e-5,"MEAN_MOTION_DDOT":0},{"OBJECT_NAME":"COSMOS 2251 DEB","OBJECT_ID":"1993-036AJU","EPOCH":"2026-03-05T22:29:26.084544","MEAN_MOTION":14.83402421,"ECCENTRICITY":0.00038866,"INCLINATION":74.0013,"RA_OF_ASC_NODE":254.7461,"ARG_OF_PERICENTER":346.5581,"MEAN_ANOMALY":13.5493,"EPHEMERIS_TYPE":0,"CLASSIFICATION_TYPE":"U","NORAD_CAT_ID":35290,"ELEMENT_SET_NO":999,"REV_AT_EPOCH":89190,"BSTAR":0.0021521664,"MEAN_MOTION_DOT":0.00017678,"MEAN_MOTION_DDOT":0},{"OBJECT_NAME":"COSMOS 2251 DEB","OBJECT_ID":"1993-036AKA","EPOCH":"2026-03-05T17:49:52.219200","MEAN_MOTION":15.59482558,"ECCENTRICITY":0.00108619,"INCLINATION":74.0112,"RA_OF_ASC_NODE":196.9068,"ARG_OF_PERICENTER":339.6686,"MEAN_ANOMALY":20.4098,"EPHEMERIS_TYPE":0,"CLASSIFICATION_TYPE":"U","NORAD_CAT_ID":35432,"ELEMENT_SET_NO":999,"REV_AT_EPOCH":88778,"BSTAR":0.0096654111,"MEAN_MOTION_DOT":0.00838622,"MEAN_MOTION_DDOT":0}]
